FALCONSAT-6             
1 43815U 18099BK  26068.72544389  .00005029  00000+0  19477-3 0  9998
2 43815  97.3865 145.8165 0014370 297.0944 181.0714 15.26532865398556
STARLINK-31851          
1 59844U 24097K   26068.00227620 -.00000482  00000+0 -80125-5 0  9999
2 59844  42.9994 278.0740 0001288 263.3021  96.7684 15.27574121101819
